STARLINK-35130          
1 65740U 25216G   26027.79177600  .00042629  00000+0  14430-2 0  9998
2 65740  53.1564 162.7372 0001123  68.5560 291.5560 15.30204430 20331
STARLINK-35284          
1 65741U 25216H   26027.75284103  .00044311  00000+0  14964-2 0  9994
2 65741  53.1588 163.2074 0000905  92.5346 267.5758 15.30263688 20274
STARLINK-35316          
1 65742U 25216J   26027.73912055  .00034654  00000+0  11764-2 0  9991
2 65742  53.1584 163.1168 0001358 127.3078 232.8046 15.30208921 19199
STARLINK-35319          
1 65743U 25216K   26026.53074549  .00019641  00000+0  67342-3 0  9999
2 65743  53.1579 168.3726 0001094  86.0318 274.0808 15.30204106 20148
STARLINK-35173          
1 65744U 25216L   26027.78544540  .00055767  00000+0  18807-2 0  9991
2 65744  53.1578 162.6956 0001293  81.9059 278.2088 15.30202936 20333
STARLINK-34808          
1 65745U 25216M   26027.89602466  .00043318  00000+0  14662-2 0  9990
2 65745  53.1589 161.9617 0001485  92.9374 267.1796 15.30198295 20275
STARLINK-34704          
1 65746U 25216N   26027.88241520  .00031433  00000+0  10687-2 0  9998
2 65746  53.1574 162.5876 0001065  98.8348 261.2773 15.30207532 20280
STARLINK-35214          
1 65747U 25216P   26027.86869562  .00044997  00000+0  15219-2 0  9994
2 65747  53.1555 162.5012 0001122  99.3411 260.7717 15.30205036 20293
STARLINK-35265          
1 65748U 25216Q   26026.76362302  .00031170  00000+0  10595-2 0  9994
2 65748  53.1619 167.6967 0000446 152.2206 207.8819 15.30219121 19045
STARLINK-35288          
1 65749U 25216R   26027.73595996  .00059315  00000+0  19992-2 0  9991
2 65749  53.1569 163.0988 0001170  69.5025 290.6101 15.30194266 20247
STARLINK-35165          
1 65750U 25216S   26027.78861114  .00031459  00000+0  10700-2 0  9993
2 65750  53.1578 162.7146 0001289  80.8551 279.2595 15.30192742 20250
STARLINK-35260          
1 65751U 25216T   26027.78228639  .00044936  00000+0  15206-2 0  9993
2 65751  53.1595 162.6752 0001226  53.9179 306.1936 15.30190990 20285
STARLINK-34893          
1 65752U 25216U   26027.74965803  .00052461  00000+0  17683-2 0  9994
2 65752  53.1571 163.1857 0004534 226.1009 133.9618 15.30241472 20244
STARLINK-34894          
1 65753U 25216V   26027.66431135  .00017643  00000+0  60647-3 0  9994
2 65753  53.1573 163.3603 0001107  76.7585 283.3539 15.30195036 20234
STARLINK-35287          
1 65754U 25216W   26027.76857910  .00044713  00000+0  15115-2 0  9996
2 65754  53.1559 162.5872 0000871  88.7006 271.4095 15.30225676 20246
STARLINK-35294          
1 65755U 25216X   26027.77594830  .00044080  00000+0  14921-2 0  9998
2 65755  53.1570 162.6339 0001439  83.3068 276.8096 15.30188650 20283
