[{"OBJECT_NAME":"STARLINK-35130","OBJECT_ID":"2025-216G","EPOCH":"2026-01-27T19:00:09.446400","MEAN_MOTION":15.3020443,"ECCENTRICITY":0.00011239,"INCLINATION":53.1564,"RA_OF_ASC_NODE":162.7372,"ARG_OF_PERICENTER":68.556,"MEAN_ANOMALY":291.556,"EPHEMERIS_TYPE":0,"CLASSIFICATION_TYPE":"U","NORAD_CAT_ID":65740,"ELEMENT_SET_NO":999,"REV_AT_EPOCH":2033,"BSTAR":0.0014429836,"MEAN_MOTION_DOT":0.00042629,"MEAN_MOTION_DDOT":0},{"OBJECT_NAME":"STARLINK-35284","OBJECT_ID":"2025-216H","EPOCH":"2026-01-27T18:04:05.464992","MEAN_MOTION":15.30263688,"ECCENTRICITY":9.052e-5,"INCLINATION":53.1588,"RA_OF_ASC_NODE":163.2074,"ARG_OF_PERICENTER":92.5346,"MEAN_ANOMALY":267.5758,"EPHEMERIS_TYPE":0,"CLASSIFICATION_TYPE":"U","NORAD_CAT_ID":65741,"ELEMENT_SET_NO":999,"REV_AT_EPOCH":2027,"BSTAR":0.0014963684,"MEAN_MOTION_DOT":0.00044311,"MEAN_MOTION_DDOT":0},{"OBJECT_NAME":"STARLINK-35316","OBJECT_ID":"2025-216J","EPOCH":"2026-01-27T17:44:20.015520","MEAN_MOTION":15.30208921,"ECCENTRICITY":0.00013583,"INCLINATION":53.1584,"RA_OF_ASC_NODE":163.1168,"ARG_OF_PERICENTER":127.3078,"MEAN_ANOMALY":232.8046,"EPHEMERIS_TYPE":0,"CLASSIFICATION_TYPE":"U","NORAD_CAT_ID":65742,"ELEMENT_SET_NO":999,"REV_AT_EPOCH":1919,"BSTAR":0.0011763829,"MEAN_MOTION_DOT":0.00034654,"MEAN_MOTION_DDOT":0},{"OBJECT_NAME":"STARLINK-35319","OBJECT_ID":"2025-216K","EPOCH":"2026-01-26T12:44:16.410336","MEAN_MOTION":15.30204106,"ECCENTRICITY":0.0001094,"INCLINATION":53.1579,"RA_OF_ASC_NODE":168.3726,"ARG_OF_PERICENTER":86.0318,"MEAN_ANOMALY":274.0808,"EPHEMERIS_TYPE":0,"CLASSIFICATION_TYPE":"U","NORAD_CAT_ID":65743,"ELEMENT_SET_NO":999,"REV_AT_EPOCH":2014,"BSTAR":0.00067342,"MEAN_MOTION_DOT":0.00019641,"MEAN_MOTION_DDOT":0},{"OBJECT_NAME":"STARLINK-35173","OBJECT_ID":"2025-216L","EPOCH":"2026-01-27T18:51:02.482560","MEAN_MOTION":15.30202936,"ECCENTRICITY":0.00012936,"INCLINATION":53.1578,"RA_OF_ASC_NODE":162.6956,"ARG_OF_PERICENTER":81.9059,"MEAN_ANOMALY":278.2088,"EPHEMERIS_TYPE":0,"CLASSIFICATION_TYPE":"U","NORAD_CAT_ID":65744,"ELEMENT_SET_NO":999,"REV_AT_EPOCH":2033,"BSTAR":0.0018807287,"MEAN_MOTION_DOT":0.00055767,"MEAN_MOTION_DDOT":0},{"OBJECT_NAME":"STARLINK-34808","OBJECT_ID":"2025-216M","EPOCH":"2026-01-27T21:30:16.530624","MEAN_MOTION":15.30198295,"ECCENTRICITY":0.00014854,"INCLINATION":53.1589,"RA_OF_ASC_NODE":161.9617,"ARG_OF_PERICENTER":92.9374,"MEAN_ANOMALY":267.1796,"EPHEMERIS_TYPE":0,"CLASSIFICATION_TYPE":"U","NORAD_CAT_ID":65745,"ELEMENT_SET_NO":999,"REV_AT_EPOCH":2027,"BSTAR":0.0014662378,"MEAN_MOTION_DOT":0.00043318,"MEAN_MOTION_DDOT":0},{"OBJECT_NAME":"STARLINK-34704","OBJECT_ID":"2025-216N","EPOCH":"2026-01-27T21:10:40.673280","MEAN_MOTION":15.30207532,"ECCENTRICITY":0.00010657,"INCLINATION":53.1574,"RA_OF_ASC_NODE":162.5876,"ARG_OF_PERICENTER":98.8348,"MEAN_ANOMALY":261.2773,"EPHEMERIS_TYPE":0,"CLASSIFICATION_TYPE":"U","NORAD_CAT_ID":65746,"ELEMENT_SET_NO":999,"REV_AT_EPOCH":2028,"BSTAR":0.0010686777,"MEAN_MOTION_DOT":0.00031433,"MEAN_MOTION_DDOT":0},{"OBJECT_NAME":"STARLINK-35214","OBJECT_ID":"2025-216P","EPOCH":"2026-01-27T20:50:55.301568","MEAN_MOTION":15.30205036,"ECCENTRICITY":0.0001122,"INCLINATION":53.1555,"RA_OF_ASC_NODE":162.5012,"ARG_OF_PERICENTER":99.3411,"MEAN_ANOMALY":260.7717,"EPHEMERIS_TYPE":0,"CLASSIFICATION_TYPE":"U","NORAD_CAT_ID":65747,"ELEMENT_SET_NO":999,"REV_AT_EPOCH":2029,"BSTAR":0.0015219459,"MEAN_MOTION_DOT":0.00044997,"MEAN_MOTION_DDOT":0},{"OBJECT_NAME":"STARLINK-35265","OBJECT_ID":"2025-216Q","EPOCH":"2026-01-26T18:19:37.028928","MEAN_MOTION":15.30219121,"ECCENTRICITY":4.46e-5,"INCLINATION":53.1619,"RA_OF_ASC_NODE":167.6967,"ARG_OF_PERICENTER":152.2206,"MEAN_ANOMALY":207.8819,"EPHEMERIS_TYPE":0,"CLASSIFICATION_TYPE":"U","NORAD_CAT_ID":65748,"ELEMENT_SET_NO":999,"REV_AT_EPOCH":1904,"BSTAR":0.0010594681,"MEAN_MOTION_DOT":0.0003117,"MEAN_MOTION_DDOT":0},{"OBJECT_NAME":"STARLINK-35288","OBJECT_ID":"2025-216R","EPOCH":"2026-01-27T17:39:46.940544","MEAN_MOTION":15.30194266,"ECCENTRICITY":0.00011706,"INCLINATION":53.1569,"RA_OF_ASC_NODE":163.0988,"ARG_OF_PERICENTER":69.5025,"MEAN_ANOMALY":290.6101,"EPHEMERIS_TYPE":0,"CLASSIFICATION_TYPE":"U","NORAD_CAT_ID":65749,"ELEMENT_SET_NO":999,"REV_AT_EPOCH":2024,"BSTAR":0.0019992125,"MEAN_MOTION_DOT":0.00059315,"MEAN_MOTION_DDOT":0},{"OBJECT_NAME":"STARLINK-35165","OBJECT_ID":"2025-216S","EPOCH":"2026-01-27T18:55:36.002496","MEAN_MOTION":15.30192742,"ECCENTRICITY":0.0001289,"INCLINATION":53.1578,"RA_OF_ASC_NODE":162.7146,"ARG_OF_PERICENTER":80.8551,"MEAN_ANOMALY":279.2595,"EPHEMERIS_TYPE":0,"CLASSIFICATION_TYPE":"U","NORAD_CAT_ID":65750,"ELEMENT_SET_NO":999,"REV_AT_EPOCH":2025,"BSTAR":0.0010700384,"MEAN_MOTION_DOT":0.00031459,"MEAN_MOTION_DDOT":0},{"OBJECT_NAME":"STARLINK-35260","OBJECT_ID":"2025-216T","EPOCH":"2026-01-27T18:46:29.544096","MEAN_MOTION":15.3019099,"ECCENTRICITY":0.0001226,"INCLINATION":53.1595,"RA_OF_ASC_NODE":162.6752,"ARG_OF_PERICENTER":53.9179,"MEAN_ANOMALY":306.1936,"EPHEMERIS_TYPE":0,"CLASSIFICATION_TYPE":"U","NORAD_CAT_ID":65751,"ELEMENT_SET_NO":999,"REV_AT_EPOCH":2028,"BSTAR":0.0015205736,"MEAN_MOTION_DOT":0.00044936,"MEAN_MOTION_DDOT":0},{"OBJECT_NAME":"STARLINK-34893","OBJECT_ID":"2025-216U","EPOCH":"2026-01-27T17:59:30.453792","MEAN_MOTION":15.30241472,"ECCENTRICITY":0.00045343,"INCLINATION":53.1571,"RA_OF_ASC_NODE":163.1857,"ARG_OF_PERICENTER":226.1009,"MEAN_ANOMALY":133.9618,"EPHEMERIS_TYPE":0,"CLASSIFICATION_TYPE":"U","NORAD_CAT_ID":65752,"ELEMENT_SET_NO":999,"REV_AT_EPOCH":2024,"BSTAR":0.0017682617,"MEAN_MOTION_DOT":0.00052461,"MEAN_MOTION_DDOT":0},{"OBJECT_NAME":"STARLINK-34894","OBJECT_ID":"2025-216V","EPOCH":"2026-01-27T15:56:36.500640","MEAN_MOTION":15.30195036,"ECCENTRICITY":0.0001107,"INCLINATION":53.1573,"RA_OF_ASC_NODE":163.3603,"ARG_OF_PERICENTER":76.7585,"MEAN_ANOMALY":283.3539,"EPHEMERIS_TYPE":0,"CLASSIFICATION_TYPE":"U","NORAD_CAT_ID":65753,"ELEMENT_SET_NO":999,"REV_AT_EPOCH":2023,"BSTAR":0.00060647,"MEAN_MOTION_DOT":0.00017643,"MEAN_MOTION_DDOT":0},{"OBJECT_NAME":"STARLINK-35287","OBJECT_ID":"2025-216W","EPOCH":"2026-01-27T18:26:45.234240","MEAN_MOTION":15.30225676,"ECCENTRICITY":8.71e-5,"INCLINATION":53.1559,"RA_OF_ASC_NODE":162.5872,"ARG_OF_PERICENTER":88.7006,"MEAN_ANOMALY":271.4095,"EPHEMERIS_TYPE":0,"CLASSIFICATION_TYPE":"U","NORAD_CAT_ID":65754,"ELEMENT_SET_NO":999,"REV_AT_EPOCH":2024,"BSTAR":0.0015115301,"MEAN_MOTION_DOT":0.00044713,"MEAN_MOTION_DDOT":0},{"OBJECT_NAME":"STARLINK-35294","OBJECT_ID":"2025-216X","EPOCH":"2026-01-27T18:37:21.933120","MEAN_MOTION":15.3018865,"ECCENTRICITY":0.00014397,"INCLINATION":53.157,"RA_OF_ASC_NODE":162.6339,"ARG_OF_PERICENTER":83.3068,"MEAN_ANOMALY":276.8096,"EPHEMERIS_TYPE":0,"CLASSIFICATION_TYPE":"U","NORAD_CAT_ID":65755,"ELEMENT_SET_NO":999,"REV_AT_EPOCH":2028,"BSTAR":0.0014921136,"MEAN_MOTION_DOT":0.0004408,"MEAN_MOTION_DDOT":0}]
